NORAD_CAT_ID,OBJECT_NAME,OBJECT_TYPE,EPOCH,MEAN_MOTION,ECCENTRICITY,INCLINATION,RA_OF_ASC_NODE,ARG_OF_PERICENTER,MEAN_ANOMALY,BSTAR,MEAN_MOTION_DOT,MEAN_MOTION_DDOT,TLE_LINE0,TLE_LINE1,TLE_LINE2,SEMIMAJOR_AXIS,PERIOD,APOGEE,PERIGEE,DECAYED
53419.0,STARLINK-4476,PAYLOAD,2023-01-25 03:44:31,15.08834136,0.0001231999999999,53.2172,189.6879,82.3877,277.7255,3.5116e-05,2.71e-06,0.0,0 STARLINK-4476,1 53419U 22097AH  23025.15591690  .00000271  00000-0  35116-4 0  9990,2 53419  53.2172 189.6879 0001232  82.3877 277.7255 15.08834136 26131,6917.898,95.438,540.616,538.911,0.0
53419.0,STARLINK-4476,PAYLOAD,2023-01-25 11:41:27,15.08830478,0.0001091,53.2185,188.2018,86.7677,273.344,-1.3286e-05,-4.99e-06,0.0,0 STARLINK-4476,1 53419U 22097AH  23025.48712265 -.00000499  00000-0 -13286-4 0  9997,2 53419  53.2185 188.2018 0001091  86.7677 273.3440 15.08830478 26643,6917.909000000001,95.438,540.529,539.02,0.0
53419.0,STARLINK-4476,PAYLOAD,2023-01-25 16:27:36,15.08834855,0.000112,53.2186,187.3092,84.63,275.482,1.314e-05,-7.9e-07,0.0,0 STARLINK-4476,1 53419U 22097AH  23025.68584015 -.00000079  00000-0  13140-4 0  9991,2 53419  53.2186 187.3092 0001120  84.6300 275.4820 15.08834855 26670,6917.896,95.438,540.536,538.986,0.0
53419.0,STARLINK-4476,PAYLOAD,2023-01-26 14:42:59,15.088475,0.0001276,53.2187,183.1465,90.097,270.0168,0.00017473,2.495e-05,0.0,0 STARLINK-4476,1 53419U 22097AH  23026.61319005  .00002495  00000-0  17473-3 0  9995,2 53419  53.2187 183.1465 0001276  90.0970 270.0168 15.08847500 26818,6917.857,95.437,540.605,538.84,0.0
53419.0,STARLINK-4476,PAYLOAD,2023-01-27 14:33:47,15.08837819,0.0001261,53.2178,178.6865,78.2813,281.8321,0.00016348,2.315e-05,0.0,0 STARLINK-4476,1 53419U 22097AH  23027.60679799  .00002315  00000-0  16348-3 0  9995,2 53419  53.2178 178.6865 0001261  78.2813 281.8321 15.08837819 26508,6917.887,95.438,540.624,538.88,0.0
53419.0,STARLINK-4476,PAYLOAD,2023-01-27 17:44:33,15.08843975,0.0001286,53.2181,178.0916,79.8912,280.2225,0.0001383,1.914e-05,0.0,0 STARLINK-4476,1 53419U 22097AH  23027.73927479  .00001914  00000-0  13830-3 0  9997,2 53419  53.2181 178.0916 0001286  79.8912 280.2225 15.08843975 26985,6917.868,95.437,540.623,538.844,0.0
53419.0,STARLINK-4476,PAYLOAD,2023-01-28 09:38:24,15.08838769,0.0001296,53.2177,175.1178,89.1154,270.9987,1.1193e-05,-1.1e-06,0.0,0 STARLINK-4476,1 53419U 22097AH  23028.40167705 -.00000110  00000-0  11193-4 0  9999,2 53419  53.2177 175.1178 0001296  89.1154 270.9987 15.08838769 27089,6917.884,95.438,540.646,538.853,0.0
53419.0,STARLINK-4476,PAYLOAD,2023-01-28 19:10:43,15.08846663,0.0001246,53.2172,173.3333,91.437,268.6765,6.2941e-05,7.14e-06,0.0,0 STARLINK-4476,1 53419U 22097AH  23028.79911223  .00000714  00000-0  62941-4 0  9999,2 53419  53.2172 173.3333 0001246  91.4370 268.6765 15.08846663 26683,6917.86,95.437,540.587,538.863,0.0
53419.0,STARLINK-4476,PAYLOAD,2023-01-29 12:39:58,15.08837078,0.0001345,53.2173,170.0618,101.0436,259.0708,5.2461e-05,5.47e-06,0.0,0 STARLINK-4476,1 53419U 22097AH  23029.52775823  .00000547  00000-0  52461-4 0  9995,2 53419  53.2173 170.0618 0001345 101.0436 259.0708 15.08837078 26798,6917.889,95.438,540.685,538.824,0.0
53419.0,STARLINK-4476,PAYLOAD,2023-01-29 20:36:53,15.08840574,0.0001358,53.2177,168.5761,94.0396,266.0752,7.9438e-05,9.77e-06,0.0,0 STARLINK-4476,1 53419U 22097AH  23029.85895566  .00000977  00000-0  79438-4 0  9998,2 53419  53.2177 168.5761 0001358  94.0396 266.0752 15.08840574 27303,6917.879,95.438,540.683,538.804,0.0
53419.0,STARLINK-4476,PAYLOAD,2023-01-30 10:55:23,15.08825976,0.0001286,53.2184,165.901,91.8413,268.2727,-1.8979e-05,-5.9e-06,0.0,0 STARLINK-4476,1 53419U 22097AH  23030.45513124 -.00000590  00000-0 -18979-4 0  9999,2 53419  53.2184 165.9010 0001286  91.8413 268.2727 15.08825976 26937,6917.923,95.438,540.678,538.899,0.0
53419.0,STARLINK-4476,PAYLOAD,2023-01-31 01:13:51,15.08833868,0.0001197,53.2177,163.225,91.1464,268.9666,-3.3553e-05,-8.22e-06,0.0,0 STARLINK-4476,1 53419U 22097AH  23031.05128933 -.00000822  00000-0 -33553-4 0  9999,2 53419  53.2177 163.2250 0001197  91.1464 268.9666 15.08833868 27025,6917.899,95.438,540.592,538.936,0.0
53419.0,STARLINK-4476,PAYLOAD,2023-01-31 12:21:34,15.08823102,0.0001108,53.2178,161.1404,97.0784,263.0334,-2.2499e-05,-6.46e-06,0.0,0 STARLINK-4476,1 53419U 22097AH  23031.51498007 -.00000646  00000-0 -22499-4 0  9993,2 53419  53.2178 161.1404 0001108  97.0784 263.0334 15.08823102 27091,6917.932,95.439,540.564,539.031,0.0
53419.0,STARLINK-4476,PAYLOAD,2023-02-01 09:01:34,15.08831352,0.000114,53.2163,157.2765,83.0521,277.06,0.00015182,2.129e-05,0.0,0 STARLINK-4476,1 53419U 22097AH  23032.37609903  .00002129  00000-0  15182-3 0  9993,2 53419  53.2163 157.2765 0001140  83.0521 277.0600 15.08831352 27223,6917.907,95.438,540.56,538.983,0.0
53419.0,STARLINK-4476,PAYLOAD,2023-02-01 12:12:20,15.0884174,0.0001178,53.2191,156.6837,91.9746,268.1381,0.00021051,3.064e-05,0.0,0 STARLINK-4476,1 53419U 22097AH  23032.50857192  .00003064  00000-0  21051-3 0  9994,2 53419  53.2191 156.6837 0001178  91.9746 268.1381 15.08841740 27707,6917.875,95.437,540.555,538.925,0.0
53419.0,STARLINK-4476,PAYLOAD,2023-02-02 12:03:07,15.0884833,0.0001232,53.2206,152.2237,89.4155,270.6978,0.0002838,4.233e-05,0.0,0 STARLINK-4476,1 53419U 22097AH  23033.50217064  .00004233  00000-0  28380-3 0  9994,2 53419  53.2206 152.2237 0001232  89.4155 270.6978 15.08848330 27855,6917.855,95.437,540.572,538.868,0.0
53419.0,STARLINK-4476,PAYLOAD,2023-02-02 16:49:16,15.08848938,0.0001544,53.2167,151.33,83.227,276.8898,0.00034481,5.205e-05,0.0,0 STARLINK-4476,1 53419U 22097AH  23033.70088957  .00005205  00000-0  34481-3 0  9992,2 53419  53.2167 151.3300 0001544  83.2270 276.8898 15.08848938 27424,6917.853,95.437,540.786,538.65,0.0
53419.0,STARLINK-4476,PAYLOAD,2023-02-03 07:07:45,15.0884234,0.0001446,53.2162,148.6539,93.5664,266.5494,-5.4412e-05,-1.154e-05,0.0,0 STARLINK-4476,1 53419U 22097AH  23034.29704942 -.00001154  00000-0 -54412-4 0  9994,2 53419  53.2162 148.6539 0001446  93.5664 266.5494 15.08842340 27513,6917.873,95.437,540.739,538.738,0.0
53419.0,STARLINK-4476,PAYLOAD,2023-02-03 08:43:08,15.0884099,0.0001354,53.2196,148.3584,96.9066,263.2081,-0.0001127,-2.081e-05,0.0,0 STARLINK-4476,1 53419U 22097AH  23034.36329062 -.00002081  00000-0 -11270-3 0  9992,2 53419  53.2196 148.3584 0001354  96.9066 263.2081 15.08840990 27984,6917.877,95.437,540.679,538.806,0.0
53419.0,STARLINK-4476,PAYLOAD,2023-02-03 16:40:03,15.08849633,0.0001161,53.2194,146.8712,93.0009,267.1116,1.9292e-05,1.9e-07,0.0,0 STARLINK-4476,1 53419U 22097AH  23034.69448510  .00000019  00000-0  19292-4 0  9998,2 53419  53.2194 146.8712 0001161  93.0009 267.1116 15.08849633 28031,6917.851,95.437,540.519,538.913,0.0
53419.0,STARLINK-4476,PAYLOAD,2023-02-04 13:20:04,15.08849104,0.0001313,53.2179,143.0047,89.5525,270.5617,5.6396e-05,6.1e-06,0.0,0 STARLINK-4476,1 53419U 22097AH  23035.55560471  .00000610  00000-0  56396-4 0  9998,2 53419  53.2179 143.0047 0001313  89.5525 270.5617 15.08849104 27706,6917.853,95.437,540.626,538.809,0.0
53419.0,STARLINK-4476,PAYLOAD,2023-02-04 16:30:50,15.0885172,0.0001285,53.2172,142.4096,91.7806,268.3333,0.00012686,1.732e-05,0.0,0 STARLINK-4476,1 53419U 22097AH  23035.68808298  .00001732  00000-0  12686-3 0  9993,2 53419  53.2172 142.4096 0001285  91.7806 268.3333 15.08851720 28181,6917.845,95.437,540.599,538.821,0.0
53419.0,STARLINK-4476,PAYLOAD,2023-02-05 00:27:46,15.08838576,0.0001199,53.218,140.9236,99.1995,260.9133,8.7563e-05,1.106e-05,0.0,0 STARLINK-4476,1 53419U 22097AH  23036.01928881  .00001106  00000-0  87563-4 0  9994,2 53419  53.2180 140.9236 0001199  99.1995 260.9133 15.08838576 27778,6917.885,95.438,540.579,538.92,0.0
53419.0,STARLINK-4476,PAYLOAD,2023-02-05 13:10:51,15.08840749,0.0001289,53.2176,138.5443,99.701,260.4128,9.4565e-05,1.217e-05,0.0,0 STARLINK-4476,1 53419U 22097AH  23036.54920981  .00001217  00000-0  94565-4 0  9998,2 53419  53.2176 138.5443 0001289  99.7010 260.4128 15.08840749 28315,6917.878,95.438,540.635,538.851,0.0
53419.0,STARLINK-4476,PAYLOAD,2023-02-05 17:57:00,15.08849934,9.98e-05,53.2179,137.6522,109.4945,250.6155,0.00020254,2.938e-05,0.0,0 STARLINK-4476,1 53419U 22097AH  23036.74792368  .00002938  00000-0  20254-3 0  9990,2 53419  53.2179 137.6522 0000998 109.4945 250.6155 15.08849934 28347,6917.85,95.437,540.405,539.025,0.0
53419.0,STARLINK-4476,PAYLOAD,2023-02-06 11:26:15,15.08846985,0.0001355,53.2174,134.3847,80.1516,279.9629,0.00013527,1.866e-05,0.0,0 STARLINK-4476,1 53419U 22097AH  23037.47656804  .00001866  00000-0  13527-3 0  9999,2 53419  53.2174 134.3847 0001355  80.1516 279.9629 15.08846985 27996,6917.859,95.437,540.661,538.787,0.0
53419.0,STARLINK-4476,PAYLOAD,2023-02-06 13:01:38,15.08851534,0.0001394,53.2186,134.0866,94.3258,265.7893,0.0002241,3.282e-05,0.0,0 STARLINK-4476,1 53419U 22097AH  23037.54280559  .00003282  00000-0  22410-3 0  9992,2 53419  53.2186 134.0866 0001394  94.3258 265.7893 15.08851534 28465,6917.845,95.437,540.674,538.746,0.0
53419.0,STARLINK-4476,PAYLOAD,2023-02-06 17:47:46,15.08864428,9.92e-05,53.2179,133.1922,87.1786,272.932,0.00034506,5.212e-05,0.0,0 STARLINK-4476,1 53419U 22097AH  23037.74151597  .00005212  00000-0  34506-3 0  9997,2 53419  53.2179 133.1922 0000992  87.1786 272.9320 15.08864428 28033,6917.806,95.436,540.357,538.984,0.0
53419.0,STARLINK-4476,PAYLOAD,2023-02-07 06:30:52,15.08845476,0.0001134,53.217,130.8116,115.6498,244.4611,0.00016257,2.301e-05,0.0,0 STARLINK-4476,1 53419U 22097AH  23038.27144356  .00002301  00000-0  16257-3 0  9990,2 53419  53.2170 130.8116 0001134 115.6498 244.4611 15.08845476 28117,6917.864,95.437,540.513,538.944,0.0
53419.0,STARLINK-4476,PAYLOAD,2023-02-07 12:52:24,15.08863404,0.0001328,53.2182,129.623,116.8542,243.2586,0.00050323,7.735e-05,0.0,0 STARLINK-4476,1 53419U 22097AH  23038.53639668  .00007735  00000-0  50323-3 0  9992,2 53419  53.2182 129.6230 0001328 116.8542 243.2586 15.08863404 28615,6917.809,95.436,540.593,538.755,0.0
